QIANFAN-41              
1 62242U 24232F   25255.51451871  .00000032  00000+0  30052-4 0  9998
2 62242  88.9964  50.3953 0015911  95.1395 265.1573 13.50969448 86930
QIANFAN-42              
1 62243U 24232G   25255.51921427  .00000220  00000+0  89045-4 0  9993
2 62243  88.9964  47.7667 0015904  30.8164 329.3958 14.24347383 88386
QIANFAN-43              
1 62244U 24232H   25255.51042614  .00000036  00000+0  36417-4 0  9996
2 62244  88.9968  50.4570 0017420  99.8235 260.4884 13.50966780 55545
QIANFAN-44              
1 62245U 24232J   25255.57215082  .00000043  00000+0  47020-4 0  9994
2 62245  88.9967  50.2629 0015647  97.0171 263.2760 13.50965391 87025
QIANFAN-45              
1 62246U 24232K   25255.53921862  .00000036  00000+0  36550-4 0  9999
2 62246  88.9970  50.4096 0016285  96.7753 263.5252 13.50968896 86943
QIANFAN-46              
1 62247U 24232L   25255.56389170  .00000039  00000+0  41419-4 0  9996
2 62247  88.9966  50.4798 0016355 101.5900 258.7088 13.50969609 86907
QIANFAN-47              
1 62248U 24232M   25255.56801056  .00000051  00000+0  60059-4 0  9994
2 62248  88.9962  50.4160 0016781 100.8332 259.4709 13.50963110 86933
QIANFAN-48              
1 62249U 24232N   25255.53099428  .00000059  00000+0  72134-4 0  9999
2 62249  88.9966  50.4180 0019020 103.3774 256.9499 13.50966666 86934
